LEMUR-1                 
1 40044U 14033AL  26032.91890766  .00002878  00000+0  34002-3 0  9998
2 40044  97.7651 185.9467 0049394 160.7074 199.6026 14.84562770625395
LEMUR-2-GREENBERG       
1 42837U 17042N   26032.95008749  .00015888  00000+0  60961-3 0  9997
2 42837  97.3727 214.6916 0010208 120.9568 239.2676 15.26513290467727
LEMUR-2-ANDIS           
1 42838U 17042P   26032.97229673  .00019786  00000+0  70907-3 0  9993
2 42838  97.3621 214.5370 0009979 124.3988 235.8197 15.28723683467755
LEMUR-2-MONSON          
1 42839U 17042Q   26032.94774269  .00015497  00000+0  64860-3 0  9993
2 42839  97.3989 214.8264 0007730 109.2019 251.0056 15.23626054467548
LEMUR-2-FURIAUS         
1 42840U 17042R   26032.48586766  .00019329  00000+0  79073-3 0  9997
2 42840  97.3714 212.5547 0007514 182.0775 178.0433 15.24350569467490
LEMUR-2-PETERG          
1 42841U 17042S   26032.93964681  .00016647  00000+0  61444-3 0  9997
2 42841  97.3936 218.3428 0004799  94.8117 265.3670 15.27827345467746
LEMUR-2-DEMBITZ         
1 42842U 17042T   26032.93884758  .00017268  00000+0  68402-3 0  9995
2 42842  97.3765 215.8311 0007499 131.7399 228.4481 15.25455516467692
LEMUR-2-ZACHARY         
1 42845U 17042W   26032.92300896  .00034403  00000+0  89556-3 0  9996
2 42845  97.3643 222.7601 0003571 141.9971 218.1527 15.38810157468323
LEMUR-2-JIN-LUEN        
1 43182U 18014C   26032.75935928  .00114890  00000+0  11044-2 0  9997
2 43182  97.5480 320.1082 0008017  69.9989 290.2134 15.66175140439828
LEMUR-2-KADI            
1 43184U 18014E   26032.76422921  .00064616  00000+0  86778-3 0  9991
2 43184  97.4803 315.5118 0006907  61.6915 298.5036 15.57687867439781
LEMUR-2-AMANDA-SVANTE   
1 48269U 21034B   26032.74341006  .00022011  00000+0  84890-3 0  9994
2 48269  97.5908 108.2185 0002353  29.9703 330.1670 15.26323114260340
LEMUR-2-SPECIAL-K       
1 48273U 21034F   26032.78337399  .00049241  00000+0  12145-2 0  9990
2 48273  97.5787 112.6809 0000321  16.0662 344.0594 15.40384668260702
LEMUR-2-EMBRIONOVIS     
1 56970U 23084AQ  26032.86652565  .00007693  00000+0  23612-3 0  9991
2 56970  97.6076 172.4358 0010788  78.2350 282.0102 15.33983907146917
LEMUR-2-MANO            
1 57390U 23100E   26032.95084579  .00076266  00000+0  12449-2 0  9998
2 57390  99.4611  43.9581 0006497  98.1660 262.0323 15.52293949140925
LEMUR-2-DEVERILL-M-T    
1 57391U 23100F   26032.96207198  .00022952  00000+0  72994-3 0  9999
2 57391  99.4564  33.4662 0009337 125.3025 234.9085 15.32605582140483
LEMUR-2-BASS            
1 58259U 23174D   26032.93562062  .00015190  00000+0  40285-3 0  9999
2 58259  97.3944 116.1901 0006885 300.1010  59.9552 15.38390790124533
