[{"OBJECT_NAME":"LEMUR-1","OBJECT_ID":"2014-033AL","EPOCH":"2026-02-01T22:03:13.621824","MEAN_MOTION":14.8456277,"ECCENTRICITY":0.00493946,"INCLINATION":97.7651,"RA_OF_ASC_NODE":185.9467,"ARG_OF_PERICENTER":160.7074,"MEAN_ANOMALY":199.6026,"EPHEMERIS_TYPE":0,"CLASSIFICATION_TYPE":"U","NORAD_CAT_ID":40044,"ELEMENT_SET_NO":999,"REV_AT_EPOCH":62539,"BSTAR":0.00034002297,"MEAN_MOTION_DOT":2.878e-5,"MEAN_MOTION_DDOT":0},{"OBJECT_NAME":"LEMUR-2-GREENBERG","OBJECT_ID":"2017-042N","EPOCH":"2026-02-01T22:48:07.559136","MEAN_MOTION":15.2651329,"ECCENTRICITY":0.0010208,"INCLINATION":97.3727,"RA_OF_ASC_NODE":214.6916,"ARG_OF_PERICENTER":120.9568,"MEAN_ANOMALY":239.2676,"EPHEMERIS_TYPE":0,"CLASSIFICATION_TYPE":"U","NORAD_CAT_ID":42837,"ELEMENT_SET_NO":999,"REV_AT_EPOCH":46772,"BSTAR":0.0006096133,"MEAN_MOTION_DOT":0.00015888,"MEAN_MOTION_DDOT":0},{"OBJECT_NAME":"LEMUR-2-ANDIS","OBJECT_ID":"2017-042P","EPOCH":"2026-02-01T23:20:06.437472","MEAN_MOTION":15.28723683,"ECCENTRICITY":0.00099792,"INCLINATION":97.3621,"RA_OF_ASC_NODE":214.537,"ARG_OF_PERICENTER":124.3988,"MEAN_ANOMALY":235.8197,"EPHEMERIS_TYPE":0,"CLASSIFICATION_TYPE":"U","NORAD_CAT_ID":42838,"ELEMENT_SET_NO":999,"REV_AT_EPOCH":46775,"BSTAR":0.000709066,"MEAN_MOTION_DOT":0.00019786,"MEAN_MOTION_DDOT":0},{"OBJECT_NAME":"LEMUR-2-MONSON","OBJECT_ID":"2017-042Q","EPOCH":"2026-02-01T22:44:44.968416","MEAN_MOTION":15.23626054,"ECCENTRICITY":0.00077308,"INCLINATION":97.3989,"RA_OF_ASC_NODE":214.8264,"ARG_OF_PERICENTER":109.2019,"MEAN_ANOMALY":251.0056,"EPHEMERIS_TYPE":0,"CLASSIFICATION_TYPE":"U","NORAD_CAT_ID":42839,"ELEMENT_SET_NO":999,"REV_AT_EPOCH":46754,"BSTAR":0.00064860437,"MEAN_MOTION_DOT":0.00015497,"MEAN_MOTION_DDOT":0},{"OBJECT_NAME":"LEMUR-2-FURIAUS","OBJECT_ID":"2017-042R","EPOCH":"2026-02-01T11:39:38.965824","MEAN_MOTION":15.24350569,"ECCENTRICITY":0.00075145,"INCLINATION":97.3714,"RA_OF_ASC_NODE":212.5547,"ARG_OF_PERICENTER":182.0775,"MEAN_ANOMALY":178.0433,"EPHEMERIS_TYPE":0,"CLASSIFICATION_TYPE":"U","NORAD_CAT_ID":42840,"ELEMENT_SET_NO":999,"REV_AT_EPOCH":46749,"BSTAR":0.00079073104,"MEAN_MOTION_DOT":0.00019329,"MEAN_MOTION_DDOT":0},{"OBJECT_NAME":"LEMUR-2-PETERG","OBJECT_ID":"2017-042S","EPOCH":"2026-02-01T22:33:05.484384","MEAN_MOTION":15.27827345,"ECCENTRICITY":0.00047999,"INCLINATION":97.3936,"RA_OF_ASC_NODE":218.3428,"ARG_OF_PERICENTER":94.8117,"MEAN_ANOMALY":265.367,"EPHEMERIS_TYPE":0,"CLASSIFICATION_TYPE":"U","NORAD_CAT_ID":42841,"ELEMENT_SET_NO":999,"REV_AT_EPOCH":46774,"BSTAR":0.00061444121,"MEAN_MOTION_DOT":0.00016647,"MEAN_MOTION_DDOT":0},{"OBJECT_NAME":"LEMUR-2-DEMBITZ","OBJECT_ID":"2017-042T","EPOCH":"2026-02-01T22:31:56.430912","MEAN_MOTION":15.25455516,"ECCENTRICITY":0.00074993,"INCLINATION":97.3765,"RA_OF_ASC_NODE":215.8311,"ARG_OF_PERICENTER":131.7399,"MEAN_ANOMALY":228.4481,"EPHEMERIS_TYPE":0,"CLASSIFICATION_TYPE":"U","NORAD_CAT_ID":42842,"ELEMENT_SET_NO":999,"REV_AT_EPOCH":46769,"BSTAR":0.00068401881,"MEAN_MOTION_DOT":0.00017268,"MEAN_MOTION_DDOT":0},{"OBJECT_NAME":"LEMUR-2-ZACHARY","OBJECT_ID":"2017-042W","EPOCH":"2026-02-01T22:09:07.974144","MEAN_MOTION":15.38810157,"ECCENTRICITY":0.0003571,"INCLINATION":97.3643,"RA_OF_ASC_NODE":222.7601,"ARG_OF_PERICENTER":141.9971,"MEAN_ANOMALY":218.1527,"EPHEMERIS_TYPE":0,"CLASSIFICATION_TYPE":"U","NORAD_CAT_ID":42845,"ELEMENT_SET_NO":999,"REV_AT_EPOCH":46832,"BSTAR":0.00089555999,"MEAN_MOTION_DOT":0.00034403,"MEAN_MOTION_DDOT":0},{"OBJECT_NAME":"LEMUR-2-JIN-LUEN","OBJECT_ID":"2018-014C","EPOCH":"2026-02-01T18:13:28.641792","MEAN_MOTION":15.6617514,"ECCENTRICITY":0.00080179,"INCLINATION":97.548,"RA_OF_ASC_NODE":320.1082,"ARG_OF_PERICENTER":69.9989,"MEAN_ANOMALY":290.2134,"EPHEMERIS_TYPE":0,"CLASSIFICATION_TYPE":"U","NORAD_CAT_ID":43182,"ELEMENT_SET_NO":999,"REV_AT_EPOCH":43982,"BSTAR":0.0011043864,"MEAN_MOTION_DOT":0.0011489,"MEAN_MOTION_DDOT":0},{"OBJECT_NAME":"LEMUR-2-KADI","OBJECT_ID":"2018-014E","EPOCH":"2026-02-01T18:20:29.403744","MEAN_MOTION":15.57687867,"ECCENTRICITY":0.00069073,"INCLINATION":97.4803,"RA_OF_ASC_NODE":315.5118,"ARG_OF_PERICENTER":61.6915,"MEAN_ANOMALY":298.5036,"EPHEMERIS_TYPE":0,"CLASSIFICATION_TYPE":"U","NORAD_CAT_ID":43184,"ELEMENT_SET_NO":999,"REV_AT_EPOCH":43978,"BSTAR":0.00086778101,"MEAN_MOTION_DOT":0.00064616,"MEAN_MOTION_DDOT":0},{"OBJECT_NAME":"LEMUR-2-AMANDA-SVANTE","OBJECT_ID":"2021-034B","EPOCH":"2026-02-01T17:50:30.629184","MEAN_MOTION":15.26323114,"ECCENTRICITY":0.00023533,"INCLINATION":97.5908,"RA_OF_ASC_NODE":108.2185,"ARG_OF_PERICENTER":29.9703,"MEAN_ANOMALY":330.167,"EPHEMERIS_TYPE":0,"CLASSIFICATION_TYPE":"U","NORAD_CAT_ID":48269,"ELEMENT_SET_NO":999,"REV_AT_EPOCH":26034,"BSTAR":0.00084890458,"MEAN_MOTION_DOT":0.00022011,"MEAN_MOTION_DDOT":0},{"OBJECT_NAME":"LEMUR-2-SPECIAL-K","OBJECT_ID":"2021-034F","EPOCH":"2026-02-01T18:48:03.512736","MEAN_MOTION":15.40384668,"ECCENTRICITY":3.214e-5,"INCLINATION":97.5787,"RA_OF_ASC_NODE":112.6809,"ARG_OF_PERICENTER":16.0662,"MEAN_ANOMALY":344.0594,"EPHEMERIS_TYPE":0,"CLASSIFICATION_TYPE":"U","NORAD_CAT_ID":48273,"ELEMENT_SET_NO":999,"REV_AT_EPOCH":26070,"BSTAR":0.0012145432,"MEAN_MOTION_DOT":0.00049241,"MEAN_MOTION_DDOT":0},{"OBJECT_NAME":"LEMUR-2-EMBRIONOVIS","OBJECT_ID":"2023-084AQ","EPOCH":"2026-02-01T20:47:47.816160","MEAN_MOTION":15.33983907,"ECCENTRICITY":0.00107888,"INCLINATION":97.6076,"RA_OF_ASC_NODE":172.4358,"ARG_OF_PERICENTER":78.235,"MEAN_ANOMALY":282.0102,"EPHEMERIS_TYPE":0,"CLASSIFICATION_TYPE":"U","NORAD_CAT_ID":56970,"ELEMENT_SET_NO":999,"REV_AT_EPOCH":14691,"BSTAR":0.00023611826,"MEAN_MOTION_DOT":7.693e-5,"MEAN_MOTION_DDOT":0},{"OBJECT_NAME":"LEMUR-2-MANO","OBJECT_ID":"2023-100E","EPOCH":"2026-02-01T22:49:13.076256","MEAN_MOTION":15.52293949,"ECCENTRICITY":0.0006497,"INCLINATION":99.4611,"RA_OF_ASC_NODE":43.9581,"ARG_OF_PERICENTER":98.166,"MEAN_ANOMALY":262.0323,"EPHEMERIS_TYPE":0,"CLASSIFICATION_TYPE":"U","NORAD_CAT_ID":57390,"ELEMENT_SET_NO":999,"REV_AT_EPOCH":14092,"BSTAR":0.0012448546,"MEAN_MOTION_DOT":0.00076266,"MEAN_MOTION_DDOT":0},{"OBJECT_NAME":"LEMUR-2-DEVERILL-M-T","OBJECT_ID":"2023-100F","EPOCH":"2026-02-01T23:05:23.019072","MEAN_MOTION":15.32605582,"ECCENTRICITY":0.00093376,"INCLINATION":99.4564,"RA_OF_ASC_NODE":33.4662,"ARG_OF_PERICENTER":125.3025,"MEAN_ANOMALY":234.9085,"EPHEMERIS_TYPE":0,"CLASSIFICATION_TYPE":"U","NORAD_CAT_ID":57391,"ELEMENT_SET_NO":999,"REV_AT_EPOCH":14048,"BSTAR":0.00072993563,"MEAN_MOTION_DOT":0.00022952,"MEAN_MOTION_DDOT":0},{"OBJECT_NAME":"LEMUR-2-BASS","OBJECT_ID":"2023-174D","EPOCH":"2026-02-01T22:27:17.621568","MEAN_MOTION":15.3839079,"ECCENTRICITY":0.00068855,"INCLINATION":97.3944,"RA_OF_ASC_NODE":116.1901,"ARG_OF_PERICENTER":300.101,"MEAN_ANOMALY":59.9552,"EPHEMERIS_TYPE":0,"CLASSIFICATION_TYPE":"U","NORAD_CAT_ID":58259,"ELEMENT_SET_NO":999,"REV_AT_EPOCH":12453,"BSTAR":0.00040284773,"MEAN_MOTION_DOT":0.0001519,"MEAN_MOTION_DDOT":0}]
